COMMENT,ORIGINATOR,NORAD_CAT_ID,OBJECT_NAME,OBJECT_TYPE,CLASSIFICATION_TYPE,INTLDES,EPOCH,EPOCH_MICROSECONDS,MEAN_MOTION,ECCENTRICITY,INCLINATION,RA_OF_ASC_NODE,ARG_OF_PERICENTER,MEAN_ANOMALY,EPHEMERIS_TYPE,ELEMENT_SET_NO,REV_AT_EPOCH,BSTAR,MEAN_MOTION_DOT,MEAN_MOTION_DDOT,FILE,TLE_LINE0,TLE_LINE1,TLE_LINE2,OBJECT_ID,OBJECT_NUMBER,SEMIMAJOR_AXIS,PERIOD,APOGEE,PERIGEE,DECAYED
"GENERATED VIA SPACETRACK.ORG API","18 SPCS","48896","SPACEBEE-105","PAYLOAD","U","21059T","2023-09-18 08:51:52","824960","15.39554288","0.0005551","97.6056","41.1731","283.5644","76.4982","0","999","12369","0.0015083","0.00059635","0","4009681","0 SPACEBEE-105","1 48896U 21059T   23261.36936140  .00059635  00000-0  15083-2 0  9995","2 48896  97.6056  41.1731 0005551 283.5644  76.4982 15.39554288123692","2021-059T","48896","6825.563","93.534","451.217","443.639","0"
"GENERATED VIA SPACETRACK.ORG API","18 SPCS","48896","SPACEBEE-105","PAYLOAD","U","21059T","2023-09-18 08:51:52","824960","15.39554288","0.0005551","97.6056","41.1731","283.5644","76.4982","0","999","12369","0.0015083","0.00059635","0","4009863","0 SPACEBEE-105","1 48896U 21059T   23261.36936140  .00059635  00000-0  15083-2 0  9995","2 48896  97.6056  41.1731 0005551 283.5644  76.4982 15.39554288123692","2021-059T","48896","6825.563","93.534","451.217","443.639","0"
"GENERATED VIA SPACETRACK.ORG API","18 SPCS","48896","SPACEBEE-105","PAYLOAD","U","21059T","2023-09-18 16:39:50","664096","15.39593457","0.0005562","97.6055","41.5111","283.0819","76.9805","0","999","12374","0.0016517","0.00065446","0","4010122","0 SPACEBEE-105","1 48896U 21059T   23261.69433639  .00065446  00000-0  16517-2 0  9996","2 48896  97.6055  41.5111 0005562 283.0819  76.9805 15.39593457123744","2021-059T","48896","6825.448","93.531","451.109","443.516","0"
"GENERATED VIA SPACETRACK.ORG API","18 SPCS","48896","SPACEBEE-105","PAYLOAD","U","21059T","2023-09-19 02:01:22","912608","15.39655139","0.000562","97.6055","41.9158","281.8053","78.2561","0","999","12380","0.001738","0.00069042","0","4010216","0 SPACEBEE-105","1 48896U 21059T   23262.08429297  .00069042  00000-0  17380-2 0  9990","2 48896  97.6055  41.9158 0005620 281.8053  78.2561 15.39655139123807","2021-059T","48896","6825.265","93.527","450.966","443.295","0"
"GENERATED VIA SPACETRACK.ORG API","18 SPCS","48896","SPACEBEE-105","PAYLOAD","U","21059T","2023-09-19 22:17:58","231680","15.39790818","0.0005574","97.6054","42.7935","279.6254","80.4361","0","999","12393","0.0019082","0.0007622","0","4011246","0 SPACEBEE-105","1 48896U 21059T   23262.92914620  .00076220  00000-0  19082-2 0  9999","2 48896  97.6054  42.7935 0005574 279.6254  80.4361 15.39790818123935","2021-059T","48896","6824.864","93.519","450.534","442.925","0"
"GENERATED VIA SPACETRACK.ORG API","18 SPCS","48896","SPACEBEE-105","PAYLOAD","U","21059T","2023-09-20 09:13:01","51680","15.39849188","0.0005538","97.6053","43.2656","277.3307","82.7309","0","999","12400","0.0015994","0.00063891","0","4011535","0 SPACEBEE-105","1 48896U 21059T   23263.38403995  .00063891  00000-0  15994-2 0  9996","2 48896  97.6053  43.2656 0005538 277.3307  82.7309 15.39849188124005","2021-059T","48896","6824.692","93.516","450.336","442.777","0"
"GENERATED VIA SPACETRACK.ORG API","18 SPCS","48896","SPACEBEE-105","PAYLOAD","U","21059T","2023-09-20 09:13:01","51680","15.39849188","0.0005538","97.6053","43.2656","277.3307","82.7309","0","999","12400","0.0015994","0.00063891","0","4011740","0 SPACEBEE-105","1 48896U 21059T   23263.38403995  .00063891  00000-0  15994-2 0  9996","2 48896  97.6053  43.2656 0005538 277.3307  82.7309 15.39849188124005","2021-059T","48896","6824.692","93.516","450.336","442.777","0"
"GENERATED VIA SPACETRACK.ORG API","18 SPCS","48896","SPACEBEE-105","PAYLOAD","U","21059T","2023-09-20 21:41:36","836448","15.39904932","0.0005665","97.6052","43.8062","277.0522","83.0079","0","999","12408","0.0013698","0.00054743","0","4012054","0 SPACEBEE-105","1 48896U 21059T   23263.90389857  .00054743  00000-0  13698-2 0  9999","2 48896  97.6052  43.8062 0005665 277.0522  83.0079 15.39904932124083","2021-059T","48896","6824.527","93.512","450.258","442.526","0"
"GENERATED VIA SPACETRACK.ORG API","18 SPCS","48896","SPACEBEE-105","PAYLOAD","U","21059T","2023-09-20 23:15:11","186208","15.39911873","0.0005682","97.6052","43.8735","276.7745","83.2854","0","999","12409","0.0013652","0.0005457","0","4012185","0 SPACEBEE-105","1 48896U 21059T   23263.96887947  .00054570  00000-0  13652-2 0  9996","2 48896  97.6052  43.8735 0005682 276.7745  83.2854 15.39911873124098","2021-059T","48896","6824.507","93.512","450.249","442.494","0"
"GENERATED VIA SPACETRACK.ORG API","18 SPCS","48896","SPACEBEE-105","PAYLOAD","U","21059T","2023-09-21 08:36:36","705888","15.39961866","0.0005687","97.6052","44.2783","275.1192","84.9404","0","999","12415","0.0015768","0.00063216","0","4012680","0 SPACEBEE-105","1 48896U 21059T   23264.35875817  .00063216  00000-0  15768-2 0  9990","2 48896  97.6052  44.2783 0005687 275.1192  84.9404 15.39961866124153","2021-059T","48896","6824.359","93.509","450.105","442.343","0"
"GENERATED VIA SPACETRACK.ORG API","18 SPCS","48896","SPACEBEE-105","PAYLOAD","U","21059T","2023-09-21 21:05:09","297312","15.40016329","0.0005652","97.6051","44.8187","274.3485","85.7115","0","999","12423","0.0014669","0.00058876","0","4012956","0 SPACEBEE-105","1 48896U 21059T   23264.87857983  .00058876  00000-0  14669-2 0  9996","2 48896  97.6051  44.8187 0005652 274.3485  85.7115 15.40016329124238","2021-059T","48896","6824.198","93.506","449.920","442.206","0"
"GENERATED VIA SPACETRACK.ORG API","18 SPCS","48896","SPACEBEE-105","PAYLOAD","U","21059T","2023-09-22 08:00:06","248160","15.40075224","0.0005619","97.6051","45.291","272.0942","87.966","0","999","12430","0.0013841","0.00055631","0","4013373","0 SPACEBEE-105","1 48896U 21059T   23265.33340565  .00055631  00000-0  13841-2 0  9998","2 48896  97.6051  45.2910 0005619 272.0942  87.9660 15.40075224124309","2021-059T","48896","6824.024","93.502","449.724","442.055","0"
"GENERATED VIA SPACETRACK.ORG API","18 SPCS","48896","SPACEBEE-105","PAYLOAD","U","21059T","2023-09-22 08:00:06","248160","15.40075224","0.0005619","97.6051","45.291","272.0942","87.966","0","999","12430","0.0013841","0.00055631","0","4013584","0 SPACEBEE-105","1 48896U 21059T   23265.33340565  .00055631  00000-0  13841-2 0  9998","2 48896  97.6051  45.2910 0005619 272.0942  87.9660 15.40075224124309","2021-059T","48896","6824.024","93.502","449.724","442.055","0"
"GENERATED VIA SPACETRACK.ORG API","18 SPCS","48896","SPACEBEE-105","PAYLOAD","U","21059T","2023-09-22 22:02:08","909088","15.40145277","0.0005627","97.6049","45.8991","271.5602","88.4998","0","999","12439","0.0016435","0.00066318","0","4013859","0 SPACEBEE-105","1 48896U 21059T   23265.91815867  .00066318  00000-0  16435-2 0  9990","2 48896  97.6049  45.8991 0005627 271.5602  88.4998 15.40145277124392","2021-059T","48896","6823.817","93.498","449.522","441.842","0"
"GENERATED VIA SPACETRACK.ORG API","18 SPCS","48896","SPACEBEE-105","PAYLOAD","U","21059T","2023-09-23 08:57:02","556000","15.40206435","0.0005632","97.6048","46.3712","268.9869","91.0731","0","999","12446","0.0015194","0.00061388","0","4014341","0 SPACEBEE-105","1 48896U 21059T   23266.37294625  .00061388  00000-0  15194-2 0  9997","2 48896  97.6048  46.3712 0005632 268.9869  91.0731 15.40206435124466","2021-059T","48896","6823.637","93.494","449.345","441.658","0"
"GENERATED VIA SPACETRACK.ORG API","18 SPCS","48896","SPACEBEE-105","PAYLOAD","U","21059T","2023-09-23 08:57:02","556000","15.40206435","0.0005632","97.6048","46.3712","268.9869","91.0731","0","999","12446","0.0015194","0.00061388","0","4014543","0 SPACEBEE-105","1 48896U 21059T   23266.37294625  .00061388  00000-0  15194-2 0  9997","2 48896  97.6048  46.3712 0005632 268.9869  91.0731 15.40206435124466","2021-059T","48896","6823.637","93.494","449.345","441.658","0"
"GENERATED VIA SPACETRACK.ORG API","18 SPCS","48896","SPACEBEE-105","PAYLOAD","U","21059T","2023-09-24 08:20:18","329568","15.40327928","0.0005697","97.6047","47.3842","267.1931","92.8662","0","999","12461","0.0014268","0.00057846","0","4015358","0 SPACEBEE-105","1 48896U 21059T   23267.34743437  .00057846  00000-0  14268-2 0  9990","2 48896  97.6047  47.3842 0005697 267.1931  92.8662 15.40327928124612","2021-059T","48896","6823.278","93.487","449.030","441.255","0"
"GENERATED VIA SPACETRACK.ORG API","18 SPCS","48896","SPACEBEE-105","PAYLOAD","U","21059T","2023-09-24 14:34:29","235648","15.40363587","0.0005688","97.6048","47.6546","266.0334","94.0262","0","999","12465","0.0015862","0.00064449","0","4015479","0 SPACEBEE-105","1 48896U 21059T   23267.60728282  .00064449  00000-0  15862-2 0  9998","2 48896  97.6048  47.6546 0005688 266.0334  94.0262 15.40363587124657","2021-059T","48896","6823.172","93.484","448.918","441.156","0"
"GENERATED VIA SPACETRACK.ORG API","18 SPCS","48896","SPACEBEE-105","PAYLOAD","U","21059T","2023-09-24 22:22:12","255456","15.40411196","0.0005807","97.6044","47.9916","266.9199","93.1382","0","999","12470","0.0015805","0.00064318","0","4015673","0 SPACEBEE-105","1 48896U 21059T   23267.93208629  .00064318  00000-0  15805-2 0  9994","2 48896  97.6044  47.9916 0005807 266.9199  93.1382 15.40411196124707","2021-059T","48896","6823.032","93.482","448.859","440.935","0"
"GENERATED VIA SPACETRACK.ORG API","18 SPCS","48896","SPACEBEE-105","PAYLOAD","U","21059T","2023-09-25 09:16:58","814976","15.40509679","0.0005684","97.604","48.4638","263.0959","96.964","0","999","12477","0.002855","0.00117433","0","4016038","0 SPACEBEE-105","1 48896U 21059T   23268.38679184  .00117433  00000-0  28550-2 0  9990","2 48896  97.6040  48.4638 0005684 263.0959  96.9640 15.40509679124774","2021-059T","48896","6822.741","93.476","448.484","440.728","0"
